SL-4 R/B                
1 39679U 14021B   25356.69508147  .00011381  00000+0  27151-3 0  9995
2 39679  51.6085 352.2041 0100956 182.0992 177.9581 15.36888903644429
ALOS-2                  
1 39766U 14029A   25357.22614027  .00002437  00000+0  33307-3 0  9997
2 39766  97.9224  91.9233 0001354 100.4470 259.6894 14.79468038625569
YAOGAN-29               
1 41038U 15069A   25357.21107744  .00000193  00000+0  30503-4 0  9992
2 41038  98.0204  20.4157 0000702 172.0225 188.1000 14.82891768544542
ASTRO-H (HITOMI)        
1 41337U 16012A   25357.07253072  .00003678  00000+0  21854-3 0  9992
2 41337  30.9987 130.7536 0009712 282.3385  77.6166 15.09415250540645
HXMT (HUIYAN)           
1 42758U 17034A   25357.19889111  .00006150  00000+0  31946-3 0  9998
2 42758  43.0147  81.5840 0031097 112.1473 248.2680 15.16350441470924
CZ-2C R/B               
1 43521U 18054D   25356.62171126  .00112353  00000+0  68079-3 0  9997
2 43521  35.1335 113.7810 0014965 242.8491 117.0717 15.76065101416617
SAOCOM 1A               
1 43641U 18076A   25356.25838448 -.00000102  00000+0 -62716-5 0  9994
2 43641  97.8849 180.5423 0001358  89.4494 270.6875 14.82139719389890
H-2A R/B                
1 43682U 18084L   25357.10510979  .00020264  00000+0  54245-3 0  9994
2 43682  98.8767 193.3353 0026650 290.1503  69.6871 15.37728641393990
SAOCOM 1B               
1 46265U 20059A   25357.16729938  .00000307  00000+0  45117-4 0  9997
2 46265  97.8835 180.5371 0001458  85.1048 275.0331 14.82147596287414
CSS (TIANHE)            
1 48274U 21035A   25357.08979882  .00017849  00000+0  22134-3 0  9992
2 48274  41.4686 313.8531 0007902 121.8576 238.3032 15.59588883265642
COSMOS 2550             
1 48865U 21056A   25353.89888216  .00000080  00000+0  82513-5 0  9994
2 48865  67.1455 282.2793 0008368 269.6426  90.3770 15.33838622251223
CZ-2C R/B               
1 52794U 22058K   25356.42066688  .00027205  00000+0  48122-3 0  9990
2 52794  50.1915 354.1627 0044819 238.5127 121.1458 15.48944336198133
