CCSDS_OMM_VERS = 2.0
CREATION_DATE  = 
ORIGINATOR     = 

OBJECT_NAME    = SL-4 R/B
OBJECT_ID      = 2014-021B
CENTER_NAME    = EARTH
REF_FRAME      = TEME
TIME_SYSTEM    = UTC
MEAN_ELEMENT_THEORY = SGP/SGP4

EPOCH          = 2025-12-22T16:40:55.039008
MEAN_MOTION    = 15.36888903
ECCENTRICITY   = .0100956
INCLINATION    = 51.6085
RA_OF_ASC_NODE = 352.2041
ARG_OF_PERICENTER = 182.0992
MEAN_ANOMALY   = 177.9581

EPHEMERIS_TYPE = 0
CLASSIFICATION_TYPE = U
NORAD_CAT_ID   = 39679
ELEMENT_SET_NO = 999
REV_AT_EPOCH   = 64442
BSTAR          = .27151E-3
MEAN_MOTION_DOT = .11381E-3
MEAN_MOTION_DDOT = 0

CCSDS_OMM_VERS = 2.0
CREATION_DATE  = 
ORIGINATOR     = 

OBJECT_NAME    = ALOS-2
OBJECT_ID      = 2014-029A
CENTER_NAME    = EARTH
REF_FRAME      = TEME
TIME_SYSTEM    = UTC
MEAN_ELEMENT_THEORY = SGP/SGP4

EPOCH          = 2025-12-23T05:25:38.519328
MEAN_MOTION    = 14.79468038
ECCENTRICITY   = .0001354
INCLINATION    = 97.9224
RA_OF_ASC_NODE = 91.9233
ARG_OF_PERICENTER = 100.4470
MEAN_ANOMALY   = 259.6894

EPHEMERIS_TYPE = 0
CLASSIFICATION_TYPE = U
NORAD_CAT_ID   = 39766
ELEMENT_SET_NO = 999
REV_AT_EPOCH   = 62556
BSTAR          = .33307E-3
MEAN_MOTION_DOT = .2437E-4
MEAN_MOTION_DDOT = 0

CCSDS_OMM_VERS = 2.0
CREATION_DATE  = 
ORIGINATOR     = 

OBJECT_NAME    = YAOGAN-29
OBJECT_ID      = 2015-069A
CENTER_NAME    = EARTH
REF_FRAME      = TEME
TIME_SYSTEM    = UTC
MEAN_ELEMENT_THEORY = SGP/SGP4

EPOCH          = 2025-12-23T05:03:57.090816
MEAN_MOTION    = 14.82891768
ECCENTRICITY   = .0000702
INCLINATION    = 98.0204
RA_OF_ASC_NODE = 20.4157
ARG_OF_PERICENTER = 172.0225
MEAN_ANOMALY   = 188.1000

EPHEMERIS_TYPE = 0
CLASSIFICATION_TYPE = U
NORAD_CAT_ID   = 41038
ELEMENT_SET_NO = 999
REV_AT_EPOCH   = 54454
BSTAR          = .30503E-4
MEAN_MOTION_DOT = .193E-5
MEAN_MOTION_DDOT = 0

CCSDS_OMM_VERS = 2.0
CREATION_DATE  = 
ORIGINATOR     = 

OBJECT_NAME    = ASTRO-H (HITOMI)
OBJECT_ID      = 2016-012A
CENTER_NAME    = EARTH
REF_FRAME      = TEME
TIME_SYSTEM    = UTC
MEAN_ELEMENT_THEORY = SGP/SGP4

EPOCH          = 2025-12-23T01:44:26.654208
MEAN_MOTION    = 15.09415250
ECCENTRICITY   = .0009712
INCLINATION    = 30.9987
RA_OF_ASC_NODE = 130.7536
ARG_OF_PERICENTER = 282.3385
MEAN_ANOMALY   = 77.6166

EPHEMERIS_TYPE = 0
CLASSIFICATION_TYPE = U
NORAD_CAT_ID   = 41337
ELEMENT_SET_NO = 999
REV_AT_EPOCH   = 54064
BSTAR          = .21854E-3
MEAN_MOTION_DOT = .3678E-4
MEAN_MOTION_DDOT = 0

CCSDS_OMM_VERS = 2.0
CREATION_DATE  = 
ORIGINATOR     = 

OBJECT_NAME    = HXMT (HUIYAN)
OBJECT_ID      = 2017-034A
CENTER_NAME    = EARTH
REF_FRAME      = TEME
TIME_SYSTEM    = UTC
MEAN_ELEMENT_THEORY = SGP/SGP4

EPOCH          = 2025-12-23T04:46:24.191904
MEAN_MOTION    = 15.16350441
ECCENTRICITY   = .0031097
INCLINATION    = 43.0147
RA_OF_ASC_NODE = 81.5840
ARG_OF_PERICENTER = 112.1473
MEAN_ANOMALY   = 248.2680

EPHEMERIS_TYPE = 0
CLASSIFICATION_TYPE = U
NORAD_CAT_ID   = 42758
ELEMENT_SET_NO = 999
REV_AT_EPOCH   = 47092
BSTAR          = .31946E-3
MEAN_MOTION_DOT = .615E-4
MEAN_MOTION_DDOT = 0

CCSDS_OMM_VERS = 2.0
CREATION_DATE  = 
ORIGINATOR     = 

OBJECT_NAME    = CZ-2C R/B
OBJECT_ID      = 2018-054D
CENTER_NAME    = EARTH
REF_FRAME      = TEME
TIME_SYSTEM    = UTC
MEAN_ELEMENT_THEORY = SGP/SGP4

EPOCH          = 2025-12-22T14:55:15.852864
MEAN_MOTION    = 15.76065101
ECCENTRICITY   = .00149654
INCLINATION    = 35.1335
RA_OF_ASC_NODE = 113.7810
ARG_OF_PERICENTER = 242.8491
MEAN_ANOMALY   = 117.0717

EPHEMERIS_TYPE = 0
CLASSIFICATION_TYPE = U
NORAD_CAT_ID   = 43521
ELEMENT_SET_NO = 999
REV_AT_EPOCH   = 41661
BSTAR          = .68078535E-3
MEAN_MOTION_DOT = .112353E-2
MEAN_MOTION_DDOT = 0

CCSDS_OMM_VERS = 2.0
CREATION_DATE  = 
ORIGINATOR     = 

OBJECT_NAME    = SAOCOM 1A
OBJECT_ID      = 2018-076A
CENTER_NAME    = EARTH
REF_FRAME      = TEME
TIME_SYSTEM    = UTC
MEAN_ELEMENT_THEORY = SGP/SGP4

EPOCH          = 2025-12-22T06:12:04.419072
MEAN_MOTION    = 14.82139719
ECCENTRICITY   = .00013589
INCLINATION    = 97.8849
RA_OF_ASC_NODE = 180.5423
ARG_OF_PERICENTER = 89.4494
MEAN_ANOMALY   = 270.6875

EPHEMERIS_TYPE = 0
CLASSIFICATION_TYPE = U
NORAD_CAT_ID   = 43641
ELEMENT_SET_NO = 999
REV_AT_EPOCH   = 38989
BSTAR          = -.6271601E-5
MEAN_MOTION_DOT = -.102E-5
MEAN_MOTION_DDOT = 0

CCSDS_OMM_VERS = 2.0
CREATION_DATE  = 
ORIGINATOR     = 

OBJECT_NAME    = H-2A R/B
OBJECT_ID      = 2018-084L
CENTER_NAME    = EARTH
REF_FRAME      = TEME
TIME_SYSTEM    = UTC
MEAN_ELEMENT_THEORY = SGP/SGP4

EPOCH          = 2025-12-23T02:31:21.485856
MEAN_MOTION    = 15.37728641
ECCENTRICITY   = .002665
INCLINATION    = 98.8767
RA_OF_ASC_NODE = 193.3353
ARG_OF_PERICENTER = 290.1503
MEAN_ANOMALY   = 69.6871

EPHEMERIS_TYPE = 0
CLASSIFICATION_TYPE = U
NORAD_CAT_ID   = 43682
ELEMENT_SET_NO = 999
REV_AT_EPOCH   = 39399
BSTAR          = .54245E-3
MEAN_MOTION_DOT = .20264E-3
MEAN_MOTION_DDOT = 0

CCSDS_OMM_VERS = 2.0
CREATION_DATE  = 
ORIGINATOR     = 

OBJECT_NAME    = SAOCOM 1B
OBJECT_ID      = 2020-059A
CENTER_NAME    = EARTH
REF_FRAME      = TEME
TIME_SYSTEM    = UTC
MEAN_ELEMENT_THEORY = SGP/SGP4

EPOCH          = 2025-12-23T04:00:54.666432
MEAN_MOTION    = 14.82147596
ECCENTRICITY   = .0001458
INCLINATION    = 97.8835
RA_OF_ASC_NODE = 180.5371
ARG_OF_PERICENTER = 85.1048
MEAN_ANOMALY   = 275.0331

EPHEMERIS_TYPE = 0
CLASSIFICATION_TYPE = U
NORAD_CAT_ID   = 46265
ELEMENT_SET_NO = 999
REV_AT_EPOCH   = 28741
BSTAR          = .45117E-4
MEAN_MOTION_DOT = .307E-5
MEAN_MOTION_DDOT = 0

CCSDS_OMM_VERS = 2.0
CREATION_DATE  = 
ORIGINATOR     = 

OBJECT_NAME    = CSS (TIANHE)
OBJECT_ID      = 2021-035A
CENTER_NAME    = EARTH
REF_FRAME      = TEME
TIME_SYSTEM    = UTC
MEAN_ELEMENT_THEORY = SGP/SGP4

EPOCH          = 2025-12-23T02:09:18.618048
MEAN_MOTION    = 15.59588883
ECCENTRICITY   = .0007902
INCLINATION    = 41.4686
RA_OF_ASC_NODE = 313.8531
ARG_OF_PERICENTER = 121.8576
MEAN_ANOMALY   = 238.3032

EPHEMERIS_TYPE = 0
CLASSIFICATION_TYPE = U
NORAD_CAT_ID   = 48274
ELEMENT_SET_NO = 999
REV_AT_EPOCH   = 26564
BSTAR          = .22134E-3
MEAN_MOTION_DOT = .17849E-3
MEAN_MOTION_DDOT = 0

CCSDS_OMM_VERS = 2.0
CREATION_DATE  = 
ORIGINATOR     = 

OBJECT_NAME    = COSMOS 2550
OBJECT_ID      = 2021-056A
CENTER_NAME    = EARTH
REF_FRAME      = TEME
TIME_SYSTEM    = UTC
MEAN_ELEMENT_THEORY = SGP/SGP4

EPOCH          = 2025-12-19T21:34:23.418624
MEAN_MOTION    = 15.33838622
ECCENTRICITY   = .0008368
INCLINATION    = 67.1455
RA_OF_ASC_NODE = 282.2793
ARG_OF_PERICENTER = 269.6426
MEAN_ANOMALY   = 90.3770

EPHEMERIS_TYPE = 0
CLASSIFICATION_TYPE = U
NORAD_CAT_ID   = 48865
ELEMENT_SET_NO = 999
REV_AT_EPOCH   = 25122
BSTAR          = .8251269E-5
MEAN_MOTION_DOT = .8E-6
MEAN_MOTION_DDOT = 0

CCSDS_OMM_VERS = 2.0
CREATION_DATE  = 
ORIGINATOR     = 

OBJECT_NAME    = CZ-2C R/B
OBJECT_ID      = 2022-058K
CENTER_NAME    = EARTH
REF_FRAME      = TEME
TIME_SYSTEM    = UTC
MEAN_ELEMENT_THEORY = SGP/SGP4

EPOCH          = 2025-12-22T10:05:45.618432
MEAN_MOTION    = 15.48944336
ECCENTRICITY   = .00448191
INCLINATION    = 50.1915
RA_OF_ASC_NODE = 354.1627
ARG_OF_PERICENTER = 238.5127
MEAN_ANOMALY   = 121.1458

EPHEMERIS_TYPE = 0
CLASSIFICATION_TYPE = U
NORAD_CAT_ID   = 52794
ELEMENT_SET_NO = 999
REV_AT_EPOCH   = 19813
BSTAR          = .48122023E-3
MEAN_MOTION_DOT = .27205E-3
MEAN_MOTION_DDOT = 0

